NORAD_CAT_ID,OBJECT_NAME,OBJECT_TYPE,EPOCH,MEAN_MOTION,ECCENTRICITY,INCLINATION,RA_OF_ASC_NODE,ARG_OF_PERICENTER,MEAN_ANOMALY,BSTAR,MEAN_MOTION_DOT,MEAN_MOTION_DDOT,TLE_LINE0,TLE_LINE1,TLE_LINE2,SEMIMAJOR_AXIS,PERIOD,APOGEE,PERIGEE,DECAYED
51986.0,STARLINK-3645,PAYLOAD,2023-12-28 02:53:33,15.08833149,0.0002021,53.2182,41.8424,66.748,293.3725,0.00041994,6.4e-05,0.0,0 STARLINK-3645,1 51986U 22025AG  23362.12052664  .00006400  00000-0  41994-3 0  9992,2 51986  53.2182  41.8424 0002021  66.7480 293.3725 15.08833149100993,6917.901,95.438,541.164,538.368,0.0
51986.0,STARLINK-3645,PAYLOAD,2023-12-28 09:15:05,15.08836559,0.0001809,53.2175,40.6509,72.4891,287.6299,0.00024966,3.687e-05,0.0,0 STARLINK-3645,1 51986U 22025AG  23362.38548521  .00003687  00000-0  24966-3 0  9996,2 51986  53.2175  40.6509 0001809  72.4891 287.6299 15.08836559 99941,6917.891,95.438,541.007,538.504,0.0
51986.0,STARLINK-3645,PAYLOAD,2023-12-29 09:05:52,15.08839556,0.0001656,53.2188,36.1892,91.7244,268.3938,2.4413e-05,1.01e-06,0.0,0 STARLINK-3645,1 51986U 22025AG  23363.37908465  .00000101  00000-0  24413-4 0  9999,2 51986  53.2188  36.1892 0001656  91.7244 268.3938 15.08839556101182,6917.882,95.438,540.892,538.601,0.0
51986.0,STARLINK-3645,PAYLOAD,2023-12-29 12:16:38,15.08843442,0.0001786,53.218,35.5923,99.2776,260.8418,7.8671e-06,-1.63e-06,0.0,0 STARLINK-3645,1 51986U 22025AG  23363.51156148 -.00000163  00000-0  78671-5 0  9993,2 51986  53.2180  35.5923 0001786  99.2776 260.8418 15.08843442100110,6917.87,95.437,540.97,538.499,0.0
51986.0,STARLINK-3645,PAYLOAD,2023-12-30 08:56:39,15.08847257,0.0001661,53.2184,31.7248,97.2263,262.8918,0.00010324,1.356e-05,0.0,0 STARLINK-3645,1 51986U 22025AG  23364.37267788  .00001356  00000-0  10324-3 0  9994,2 51986  53.2184  31.7248 0001661  97.2263 262.8918 15.08847257101333,6917.858,95.437,540.872,538.574,0.0
51986.0,STARLINK-3645,PAYLOAD,2023-12-31 02:25:54,15.08834078,0.0001774,53.2179,28.4557,109.1154,251.003,1.5089e-05,-4.8e-07,0.0,0 STARLINK-3645,1 51986U 22025AG  23365.10132907 -.00000048  00000-0  15089-4 0  9992,2 51986  53.2179  28.4557 0001774 109.1154 251.0030 15.08834078101444,6917.898,95.438,540.991,538.536,0.0
51986.0,STARLINK-3645,PAYLOAD,2023-12-31 07:12:04,15.08835607,0.0001633,53.2178,27.5632,99.0539,261.0638,4.1892e-05,3.79e-06,0.0,0 STARLINK-3645,1 51986U 22025AG  23365.30004877  .00000379  00000-0  41892-4 0  9995,2 51986  53.2178  27.5632 0001633  99.0539 261.0638 15.08835607100381,6917.894,95.438,540.889,538.629,0.0
51986.0,STARLINK-3645,PAYLOAD,2024-01-01 08:38:14,15.08839119,0.0001751,53.218,22.8059,107.3602,252.7582,4.1969e-05,3.8e-06,0.0,0 STARLINK-3645,1 51986U 22025AG  24001.35988896  .00000380  00000-0  41969-4 0  9997,2 51986  53.2180  22.8059 0001751 107.3602 252.7582 15.08839119101636,6917.883,95.438,540.959,538.537,0.0
51986.0,STARLINK-3645,PAYLOAD,2024-01-02 10:04:24,15.08846228,0.0001629,53.218,18.0481,97.0507,263.067,0.00017352,2.475e-05,0.0,0 STARLINK-3645,1 51986U 22025AG  24002.41972335  .00002475  00000-0  17352-3 0  9991,2 51986  53.2180  18.0481 0001629  97.0507 263.0670 15.08846228101794,6917.861,95.437,540.853,538.599,0.0
51986.0,STARLINK-3645,PAYLOAD,2024-01-03 00:22:53,15.08838931,0.0002109,53.2187,15.3714,85.5659,274.5574,6.487e-05,7.44e-06,0.0,0 STARLINK-3645,1 51986U 22025AG  24003.01589370  .00000744  00000-0  64870-4 0  9996,2 51986  53.2187  15.3714 0002109  85.5659 274.5574 15.08838931101886,6917.884,95.438,541.208,538.29,0.0
51986.0,STARLINK-3645,PAYLOAD,2024-01-03 09:55:11,15.08841496,0.0001688,53.2184,13.5868,89.4085,270.7101,7.9105e-05,9.71e-06,0.0,0 STARLINK-3645,1 51986U 22025AG  24003.41333151  .00000971  00000-0  79105-4 0  9993,2 51986  53.2184  13.5868 0001688  89.4085 270.7101 15.08841496100850,6917.876,95.437,540.909,538.573,0.0
51986.0,STARLINK-3645,PAYLOAD,2024-01-04 04:59:49,15.08846713,0.0001668,53.2183,10.0197,86.9395,273.1788,4.7493e-05,4.68e-06,0.0,0 STARLINK-3645,1 51986U 22025AG  24004.20820932  .00000468  00000-0  47493-4 0  9995,2 51986  53.2183  10.0197 0001668  86.9395 273.1788 15.08846713102060,6917.86,95.437,540.879,538.571,0.0
51986.0,STARLINK-3645,PAYLOAD,2024-01-04 06:35:12,15.08847928,0.0001687,53.2182,9.7223,86.6832,273.4353,5.8978e-05,6.51e-06,0.0,0 STARLINK-3645,1 51986U 22025AG  24004.27444816  .00000651  00000-0  58978-4 0  9999,2 51986  53.2182   9.7223 0001687  86.6832 273.4353 15.08847928100987,6917.856,95.437,540.888,538.554,0.0
51986.0,STARLINK-3645,PAYLOAD,2024-01-05 04:50:36,15.08841634,0.0001603,53.2174,5.5597,79.835,280.2823,0.00010382,1.365e-05,0.0,0 STARLINK-3645,1 51986U 22025AG  24005.20181005  .00001365  00000-0  10382-3 0  9990,2 51986  53.2174   5.5597 0001603  79.8350 280.2823 15.08841634102217,6917.875,95.437,540.849,538.631,0.0
51986.0,STARLINK-3645,PAYLOAD,2024-01-05 09:36:44,15.08864935,0.0001638,53.2176,4.6671,90.1611,269.9569,-0.00019243,-3.351e-05,0.0,0 STARLINK-3645,1 51986U 22025AG  24005.40051906 -.00003351  00000-0 -19243-3 0  9992,2 51986  53.2176   4.6671 0001638  90.1611 269.9569 15.08864935102249,6917.804,95.436,540.802,538.536,0.0
51986.0,STARLINK-3645,PAYLOAD,2024-01-06 04:41:23,15.08841801,0.0001912,53.2189,1.0972,112.8872,247.2322,2.3697e-05,8.9e-07,0.0,0 STARLINK-3645,1 51986U 22025AG  24006.19540983  .00000089  00000-0  23697-4 0  9999,2 51986  53.2189   1.0972 0001912 112.8872 247.2322 15.08841801102360,6917.875,95.437,541.063,538.417,0.0
51986.0,STARLINK-3645,PAYLOAD,2024-01-06 09:27:32,15.08842734,0.0001906,53.2189,0.2049,112.8884,247.231,2.5714e-05,1.21e-06,0.0,0 STARLINK-3645,1 51986U 22025AG  24006.39412885  .00000121  00000-0  25714-4 0  9999,2 51986  53.2189   0.2049 0001906 112.8884 247.2310 15.08842734101308,6917.872,95.437,541.056,538.418,0.0
51986.0,STARLINK-3645,PAYLOAD,2024-01-07 09:18:20,15.08837267,0.0001858,53.2193,355.7433,108.1693,251.9502,3.7964e-05,3.16e-06,0.0,0 STARLINK-3645,1 51986U 22025AG  24007.38773345  .00000316  00000-0  37964-4 0  9996,2 51986  53.2193 355.7433 0001858 108.1693 251.9502 15.08837267102547,6917.889,95.438,541.039,538.468,0.0
51986.0,STARLINK-3645,PAYLOAD,2024-01-08 04:22:57,15.08841975,0.0001602,53.2181,352.1747,104.2829,255.8341,3.6276e-05,2.89e-06,0.0,0 STARLINK-3645,1 51986U 22025AG  24008.18261297  .00000289  00000-0  36276-4 0  9997,2 51986  53.2181 352.1747 0001602 104.2829 255.8341 15.08841975101575,6917.874,95.437,540.848,538.631,0.0
51986.0,STARLINK-3645,PAYLOAD,2024-01-09 02:38:22,15.08837989,0.0001578,53.2179,348.0121,102.5467,257.5702,5.9018e-05,6.51e-06,0.0,0 STARLINK-3645,1 51986U 22025AG  24009.10997724  .00000651  00000-0  59018-4 0  9993,2 51986  53.2179 348.0121 0001578 102.5467 257.5702 15.08837989102800,6917.887,95.438,540.843,538.66,0.0
51986.0,STARLINK-3645,PAYLOAD,2024-01-09 07:24:31,15.0884529,0.00016,53.2178,347.1199,100.7694,259.3478,7.3285e-05,8.79e-06,0.0,0 STARLINK-3645,1 51986U 22025AG  24009.30869249  .00000879  00000-0  73285-4 0  9999,2 51986  53.2178 347.1199 0001600 100.7694 259.3478 15.08845290102839,6917.864,95.437,540.836,538.622,0.0
51986.0,STARLINK-3645,PAYLOAD,2024-01-09 21:42:59,15.0883882,0.0001538,53.2192,344.449,103.8117,256.3047,0.00011763,1.585e-05,0.0,0 STARLINK-3645,1 51986U 22025AG  24009.90485627  .00001585  00000-0  11763-3 0  9996,2 51986  53.2192 344.4490 0001538 103.8117 256.3047 15.08838820101832,6917.884,95.438,540.813,538.685,0.0
51986.0,STARLINK-3645,PAYLOAD,2024-01-10 04:04:34,15.08750635,0.0002054,53.219,343.2591,112.1882,247.9329,0.0013989,0.00021991,0.0,0 STARLINK-3645,1 51986U 22025AG  24010.16983867  .00021991  00000-0  13989-2 0  9999,2 51986  53.2190 343.2591 0002054 112.1882 247.9329 15.08750635102966,6918.154,95.443,541.44,538.598,0.0
51986.0,STARLINK-3645,PAYLOAD,2024-01-10 07:15:17,15.08852285,0.0001619,53.219,342.6622,92.6577,267.46,0.00013331,1.835e-05,0.0,0 STARLINK-3645,1 51986U 22025AG  24010.30228767  .00001835  00000-0  13331-3 0  9993,2 51986  53.2190 342.6622 0001619  92.6577 267.4600 15.08852285102988,6917.843,95.437,540.828,538.588,0.0
51986.0,STARLINK-3645,PAYLOAD,2024-01-11 03:55:19,15.088439,0.0001784,53.2199,338.7988,86.9121,273.2075,6.1785e-05,6.95e-06,0.0,0 STARLINK-3645,1 51986U 22025AG  24011.16341615  .00000695  00000-0  61785-4 0  9996,2 51986  53.2199 338.7988 0001784  86.9121 273.2075 15.08843900103113,6917.868,95.437,540.968,538.499,0.0
51986.0,STARLINK-3645,PAYLOAD,2024-01-11 07:06:04,15.08850113,0.0001795,53.2199,338.2022,95.8371,264.2826,0.00011106,1.48e-05,0.0,0 STARLINK-3645,1 51986U 22025AG  24011.29588994  .00001480  00000-0  11106-3 0  9997,2 51986  53.2199 338.2022 0001795  95.8371 264.2826 15.08850113103135,6917.849,95.437,540.956,538.473,0.0
51986.0,STARLINK-3645,PAYLOAD,2024-01-11 21:24:34,15.08838203,0.0001432,53.2194,335.5249,97.7278,262.3877,-5.0696e-05,-1.095e-05,0.0,0 STARLINK-3645,1 51986U 22025AG  24011.89206242 -.00001095  00000-0 -50696-4 0  9998,2 51986  53.2194 335.5249 0001432  97.7278 262.3877 15.08838203102136,6917.886,95.438,540.742,538.76,0.0
51986.0,STARLINK-3645,PAYLOAD,2024-01-12 03:46:06,15.08842039,0.0001744,53.2185,334.3353,104.8181,255.3004,-1.5521e-06,-3.13e-06,0.0,0 STARLINK-3645,1 51986U 22025AG  24012.15701508 -.00000313  00000-0 -15521-5 0  9994,2 51986  53.2185 334.3353 0001744 104.8181 255.3004 15.08842039103269,6917.874,95.437,540.946,538.533,0.0
51986.0,STARLINK-3645,PAYLOAD,2024-01-12 06:56:52,15.08843843,0.0001997,53.2185,333.7403,103.1449,256.9766,3.6961e-05,3e-06,0.0,0 STARLINK-3645,1 51986U 22025AG  24012.28949512  .00000300  00000-0  36961-4 0  9991,2 51986  53.2185 333.7403 0001997 103.1449 256.9766 15.08843843102194,6917.869,95.437,541.115,538.352,0.0
51986.0,STARLINK-3645,PAYLOAD,2024-01-13 06:47:39,15.08846687,0.0001586,53.2182,329.2773,103.8936,256.2232,0.00012439,1.693e-05,0.0,0 STARLINK-3645,1 51986U 22025AG  24013.28309482  .00001693  00000-0  12439-3 0  9997,2 51986  53.2182 329.2773 0001586 103.8936 256.2232 15.08846687103431,6917.86,95.437,540.822,538.628,0.0
